#aV2015  7 26  0  0  0.00000000     288 DD+AD WGS84 FIT  NGA
## 1855      0.00000000   300.00000000 57229 0.0000000000000
+   31     1  2  3  4  5  6  7  9 10 11 12 13 14 15 16 17 18
+         19 20 21 22 23 24 25 26 27 28 29 30 31 32  0  0  0
+          0  0  0  0  0  0  0  0  0  0  0  0  0  0  0  0  0
+          0  0  0  0  0  0  0  0  0  0  0  0  0  0  0  0  0
+          0  0  0  0  0  0  0  0  0  0  0  0  0  0  0  0  0
++         2  2  2  2  2  2  2  2  2  2  2  2  2  2  2  2  2
++         2  2  2  2  2  2  2  2  2  2  2  2  2  2  0  0  0
++         0  0  0  0  0  0  0  0  0  0  0  0  0  0  0  0  0
++         0  0  0  0  0  0  0  0  0  0  0  0  0  0  0  0  0
++         0  0  0  0  0  0  0  0  0  0  0  0  0  0  0  0  0
%c cc cc ccc ccc cccc cccc cccc cccc ccccc ccccc ccccc ccccc
%c cc cc ccc ccc cccc cccc cccc cccc ccccc ccccc ccccc ccccc
%f  0.0000000  0.000000000  0.00000000000  0.000000000000000
%f  0.0000000  0.000000000  0.00000000000  0.000000000000000
%i    0    0    0    0      0      0      0      0         0
%i    0    0    0    0      0      0      0      0         0
/*      NGA, ST. LOUIS,MO.                                  
/*   EPHEMERIS COMPUTED FROM  1 DAYS OF DATA                
/*   EPOCHA SMOOTHER                                       
/* CCCCCCCCCCCCCCCCCCCCCCCCCCCCCCCCCCCCCCCCCCCCCCCCCCCCCCCCC
*  2015  7 26  0 10  0.00000000
P  1  14178.157768  13333.713020 -18221.580938     -2.312398                    
V  1 -22977.493267    355.416172 -17481.791290      0.006111                    
P  2   9819.141339 -14603.223138  20146.228585    580.425393                    
V  2  24944.895181   1566.645914 -11675.714025      0.022222                    
P  3  13675.740335  22644.668777   2197.912316     10.888968                    
V  3  -1264.057626   3804.564551 -31570.940884      0.036722                    
P  4   4173.742755  15692.154328 -21385.528097     -4.363533                    
V  4 -26423.379949   -150.495843  -5086.989693     -0.032107                    
P  5   1240.674938 -21374.562474  15542.855617   -213.835520                    
V  5  11556.585852  16434.331771  21794.198816      0.043064                    
P  6  22082.769240  -7876.322098  12475.543116     24.213775                    
V  6  15747.706196   2848.436298 -26078.387151      0.080790                    
P  7  24978.391496   6512.605611   7175.001826    476.486289                    
V  7  -8970.728284   1493.545596  29970.282395      0.020852                    
P  9  14498.062800   5479.295741  21567.393891     -8.972513                    
V  9 -14229.783093  23424.671573   3594.600295     -0.017712                    
P 10  14789.098428  -4937.377639  21131.963538   -183.980240                    
V 10  12673.041015  24757.196396  -2609.817531     -0.015014                    
P 11   9352.627966  14506.148571 -20746.550160   -593.713649                    
V 11 -24010.164294   8422.411222  -4953.578225     -0.024491                    
P 12 -10974.725975 -24312.421093   -551.224367    313.144558                    
V 12   1790.392694   -214.039998 -32230.100083      0.033431                    
P 13  11594.321543 -22778.735625  -7578.481198   -135.368309                    
V 13   7541.588767  -6003.808031  30005.290028     -0.033291                    
P 14 -19795.181604  11090.042430 -13425.821658     46.356639                    
V 14   8621.658007 -15414.437730 -25134.554421     -0.026879                    
P 15   -434.315194 -21848.197676 -14963.024656   -262.494192                    
V 15  11811.614963 -15212.549169  22326.924630     -0.020884                    
P 16  -2388.053004  20698.939195  16162.373686   -104.587708                    
V 16  -9849.143692 -18347.250240  22285.500997      0.041540                    
P 17  19285.711906 -12824.582251 -12517.160796   -181.597473                    
V 17  -7548.780484  14756.844166 -26337.077591     -0.015431                    
P 18 -18869.680133  -9441.276575 -15792.790344    420.201078                    
V 18  -7944.452195 -19591.853527  20262.137638      0.030901                    
P 19  -3710.038614  21562.586488 -14927.970719   -516.784424                    
V 19 -13110.674481  13582.384995  23651.193671     -0.009162                    
P 20 -12993.423511 -23042.011935   1619.795308    341.503955                    
V 20   4572.294511   -213.169468  30928.992461      0.032159                    
P 21 -25926.227434  -4546.983102   5433.012621   -466.751635                    
V 21   6048.394664  -3024.551214  29948.722198     -0.031126                    
P 22 -15561.986192   4469.902528 -20831.607801    374.826866                    
V 22 -12734.645446 -23975.473242   4143.978085      0.038033                    
P 23   6276.162027  16612.798655  19774.995928   -123.236637                    
V 23 -14637.226040  20249.324571 -12906.670696     -0.023036                    
P 24 -11387.264505 -14100.318348 -19500.126399     -1.924841                    
V 24  24683.891042   -724.808528 -13767.788147     -0.006136                    
P 25 -17279.497451 -17007.471543  10931.039556    -17.408228                    
V 25  -4847.088368 -13217.621561 -27805.368672     -0.045789                    
P 26  -9656.365393  13102.453107  20977.878227    -14.515390                    
V 26 -13180.604738 -23188.953242   8416.102628     -0.064529                    
P 27 -11475.619829  23546.764457  -4012.664346      7.020430                    
V 27  -4937.162129   2900.833342  31449.153551      0.028320                    
P 28  15589.732911   1376.240480 -20858.636386    456.112265                    
V 28  10624.136421  25746.604670   9284.666274      0.026999                    
P 29 -12501.801314  -8180.850745  21975.217761    624.467868                    
V 29  16033.177804 -22739.168003    699.834686      0.022273                    
P 30  26287.442035     42.706758  -4093.475600     -6.535561                    
V 30   4829.179421   3423.338118  31023.357633      0.075087                    
P 31 -21121.338787   8187.689873  14263.625176    308.608368                    
V 31 -17577.366865  -2810.484825 -24311.455915     -0.012679                    
P 32   3377.793187  24950.691551  -9299.832997    -90.156716                    
V 32  -6885.545831  -9698.023553 -28073.353264      0.102318                    
EOF
